{"type": "FeatureCollection", "features": [ {"type": "Feature", "properties": {"norad_id": 37562, "name": "IRIDIUM 33 DEB", "group": "iridium-33-debris", "lat": 36.30742940475112, "lon": -145.36227010671473, "alt_km": 698.8928370722788, "timestamp": "2025-12-27T03:58:44.532907+00:00", "meta": {"OBJECT_NAME": "IRIDIUM 33 DEB", "OBJECT_ID": "1997-051XX", "EPOCH": "2025-12-25T20:34:30.178272", "MEAN_MOTION": 14.56586789, "ECCENTRICITY": 0.00262364, "INCLINATION": 86.3732, "RA_OF_ASC_NODE": 37.8796, "ARG_OF_PERICENTER": 66.6095, "MEAN_ANOMALY": 59.6121, "EPHEMERIS_TYPE": 0, "CLASSIFICATION_TYPE": "U", "NORAD_CAT_ID": 37562, "ELEMENT_SET_NO": 999, "REV_AT_EPOCH": 86519, "BSTAR": 0.0010427091, "MEAN_MOTION_DOT": 4.687e-05, "MEAN_MOTION_DDOT": 0}, "tle": {"line1": "1 37562U 97051XX  25359.85729373  .00004687  00000+0  10427-2 0  9993", "line2": "2 37562  86.3732  37.8796 0026236  66.6095  59.6121 14.56586789865197"}}, "geometry": {"type": "Point", "coordinates": [-145.36227010671473, 36.30742940475112]}}, {"type": "Feature", "properties": {"norad_id": 37565, "name": "IRIDIUM 33 DEB", "group": "iridium-33-debris", "lat": 24.962107233699808, "lon": 4.995015693180941, "alt_km": 710.0318792589151, "timestamp": "2025-12-27T03:58:44.532916+00:00", "meta": {"OBJECT_NAME": "IRIDIUM 33 DEB", "OBJECT_ID": "1997-051YA", "EPOCH": "2025-12-26T17:56:16.184256", "MEAN_MOTION": 14.51576066, "ECCENTRICITY": 0.0014444, "INCLINATION": 86.3492, "RA_OF_ASC_NODE": 3.4741, "ARG_OF_PERICENTER": 43.044, "MEAN_ANOMALY": 317.1892, "EPHEMERIS_TYPE": 0, "CLASSIFICATION_TYPE": "U", "NORAD_CAT_ID": 37565, "ELEMENT_SET_NO": 999, "REV_AT_EPOCH": 66040, "BSTAR": 0.00060553, "MEAN_MOTION_DOT": 2.446e-05, "MEAN_MOTION_DDOT": 0}, "tle": {"line1": "1 37565U 97051YA  25360.74740954  .00002446  00000+0  60553-3 0  9991", "line2": "2 37565  86.3492   3.4741 0014444  43.0440 317.1892 14.51576066660409"}}, "geometry": {"type": "Point", "coordinates": [4.995015693180941, 24.962107233699808]}}, {"type": "Feature", "properties": {"norad_id": 38017, "name": "IRIDIUM 33 DEB", "group": "iridium-33-debris", "lat": -6.908804935357235, "lon": 159.51184523541417, "alt_km": 700.0095786371012, "timestamp": "2025-12-27T03:58:44.532925+00:00", "meta": {"OBJECT_NAME": "IRIDIUM 33 DEB", "OBJECT_ID": "1997-051YD", "EPOCH": "2025-12-26T09:47:07.846080", "MEAN_MOTION": 14.49460166, "ECCENTRICITY": 0.0091237, "INCLINATION": 86.3416, "RA_OF_ASC_NODE": 160.2858, "ARG_OF_PERICENTER": 57.374, "MEAN_ANOMALY": 303.6228, "EPHEMERIS_TYPE": 0, "CLASSIFICATION_TYPE": "U", "NORAD_CAT_ID": 38017, "ELEMENT_SET_NO": 999, "REV_AT_EPOCH": 61600, "BSTAR": 0.0041186, "MEAN_MOTION_DOT": 0.00016672, "MEAN_MOTION_DDOT": 0}, "tle": {"line1": "1 38017U 97051YD  25360.40772970  .00016672  00000+0  41186-2 0  9996", "line2": "2 38017  86.3416 160.2858 0091237  57.3740 303.6228 14.49460166616005"}}, "geometry": {"type": "Point", "coordinates": [159.51184523541417, -6.908804935357235]}}, {"type": "Feature", "properties": {"norad_id": 38022, "name": "IRIDIUM 33 DEB", "group": "iridium-33-debris", "lat": 83.10249718968826, "lon": 42.77607910767917, "alt_km": 741.2108949908634, "timestamp": "2025-12-27T03:58:44.532935+00:00", "meta": {"OBJECT_NAME": "IRIDIUM 33 DEB", "OBJECT_ID": "1997-051YJ", "EPOCH": "2025-12-23T07:57:08.773056", "MEAN_MOTION": 14.41313849, "ECCENTRICITY": 0.00453843, "INCLINATION": 86.2683, "RA_OF_ASC_NODE": 11.8042, "ARG_OF_PERICENTER": 16.2864, "MEAN_ANOMALY": 343.9781, "EPHEMERIS_TYPE": 0, "CLASSIFICATION_TYPE": "U", "NORAD_CAT_ID": 38022, "ELEMENT_SET_NO": 999, "REV_AT_EPOCH": 69346, "BSTAR": 0.0010847612, "MEAN_MOTION_DOT": 3.57e-05, "MEAN_MOTION_DDOT": 0}, "tle": {"line1": "1 38022U 97051YJ  25357.33135154  .00003570  00000+0  10848-2 0  9991", "line2": "2 38022  86.2683  11.8042 0045384  16.2864 343.9781 14.41313849693468"}}, "geometry": {"type": "Point", "coordinates": [42.77607910767917, 83.10249718968826]}}, {"type": "Feature", "properties": {"norad_id": 38028, "name": "IRIDIUM 33 DEB", "group": "iridium-33-debris", "lat": 58.403785901731624, "lon": 168.00134082270864, "alt_km": 717.6895933616524, "timestamp": "2025-12-27T03:58:44.532944+00:00", "meta": {"OBJECT_NAME": "IRIDIUM 33 DEB", "OBJECT_ID": "1997-051YQ", "EPOCH": "2025-12-19T17:44:22.316352", "MEAN_MOTION": 14.46188799, "ECCENTRICITY": 0.0030512, "INCLINATION": 86.3252, "RA_OF_ASC_NODE": 357.2262, "ARG_OF_PERICENTER": 99.065, "MEAN_ANOMALY": 261.4007, "EPHEMERIS_TYPE": 0, "CLASSIFICATION_TYPE": "U", "NORAD_CAT_ID": 38028, "ELEMENT_SET_NO": 999, "REV_AT_EPOCH": 65596, "BSTAR": 0.00016660929, "MEAN_MOTION_DOT": 6.2e-06, "MEAN_MOTION_DDOT": 0}, "tle": {"line1": "1 38028U 97051YQ  25353.73914718  .00000620  00000+0  16661-3 0  9991", "line2": "2 38028  86.3252 357.2262 0030512  99.0650 261.4007 14.46188799655964"}}, "geometry": {"type": "Point", "coordinates": [168.00134082270864, 58.403785901731624]}}, {"type": "Feature", "properties": {"norad_id": 38228, "name": "IRIDIUM 33 DEB", "group": "iridium-33-debris", "lat": 25.254956858782762, "lon": -139.4161390136505, "alt_km": 754.2388210975842, "timestamp": "2025-12-27T03:58:44.532953+00:00", "meta": {"OBJECT_NAME": "IRIDIUM 33 DEB", "OBJECT_ID": "1997-051ZC", "EPOCH": "2025-12-20T22:20:09.818016", "MEAN_MOTION": 14.2727844, "ECCENTRICITY": 0.0065198, "INCLINATION": 86.2935, "RA_OF_ASC_NODE": 44.9869, "ARG_OF_PERICENTER": 163.0896, "MEAN_ANOMALY": 14.0405, "EPHEMERIS_TYPE": 0, "CLASSIFICATION_TYPE": "U", "NORAD_CAT_ID": 38228, "ELEMENT_SET_NO": 999, "REV_AT_EPOCH": 84898, "BSTAR": 0.00020665, "MEAN_MOTION_DOT": 5.36e-06, "MEAN_MOTION_DDOT": 0}, "tle": {"line1": "1 38228U 97051ZC  25354.93066919  .00000536  00000+0  20665-3 0  9992", "line2": "2 38228  86.2935  44.9869 0065198 163.0896  14.0405 14.27278440848980"}}, "geometry": {"type": "Point", "coordinates": [-139.4161390136505, 25.254956858782762]}}, {"type": "Feature", "properties": {"norad_id": 38241, "name": "IRIDIUM 33 DEB", "group": "iridium-33-debris", "lat": 68.74244627630294, "lon": -6.2543638093864296, "alt_km": 699.9266731153166, "timestamp": "2025-12-27T03:58:44.532962+00:00", "meta": {"OBJECT_NAME": "IRIDIUM 33 DEB", "OBJECT_ID": "1997-051ZR", "EPOCH": "2025-12-26T17:45:34.342848", "MEAN_MOTION": 14.54955887, "ECCENTRICITY": 0.0004766, "INCLINATION": 86.324, "RA_OF_ASC_NODE": 344.4214, "ARG_OF_PERICENTER": 42.5288, "MEAN_ANOMALY": 317.6287, "EPHEMERIS_TYPE": 0, "CLASSIFICATION_TYPE": "U", "NORAD_CAT_ID": 38241, "ELEMENT_SET_NO": 999, "REV_AT_EPOCH": 60404, "BSTAR": 0.000865, "MEAN_MOTION_DOT": 3.741e-05, "MEAN_MOTION_DDOT": 0}, "tle": {"line1": "1 38241U 97051ZR  25360.73998082  .00003741  00000+0  86500-3 0  9998", "line2": "2 38241  86.3240 344.4214 0004766  42.5288 317.6287 14.54955887604041"}}, "geometry": {"type": "Point", "coordinates": [-6.2543638093864296, 68.74244627630294]}}, {"type": "Feature", "properties": {"norad_id": 38474, "name": "IRIDIUM 33 DEB", "group": "iridium-33-debris", "lat": -15.678692042477861, "lon": 2.7487803048302366, "alt_km": 717.4165699264286, "timestamp": "2025-12-27T03:58:44.532971+00:00", "meta": {"OBJECT_NAME": "IRIDIUM 33 DEB", "OBJECT_ID": "1997-051AAB", "EPOCH": "2025-12-21T07:20:31.212384", "MEAN_MOTION": 14.50718538, "ECCENTRICITY": 0.00276153, "INCLINATION": 86.3426, "RA_OF_ASC_NODE": 6.3307, "ARG_OF_PERICENTER": 61.1056, "MEAN_ANOMALY": 299.2914, "EPHEMERIS_TYPE": 0, "CLASSIFICATION_TYPE": "U", "NORAD_CAT_ID": 38474, "ELEMENT_SET_NO": 999, "REV_AT_EPOCH": 65442, "BSTAR": 0.00039085525, "MEAN_MOTION_DOT": 1.564e-05, "MEAN_MOTION_DDOT": 0}, "tle": {"line1": "1 38474U 97051AAB 25355.30591681  .00001564  00000+0  39086-3 0  9995", "line2": "2 38474  86.3426   6.3307 0027615  61.1056 299.2914 14.50718538654425"}}, "geometry": {"type": "Point", "coordinates": [2.7487803048302366, -15.678692042477861]}}, {"type": "Feature", "properties": {"norad_id": 39777, "name": "IRIDIUM 33 DEB", "group": "iridium-33-debris", "lat": -24.100924404430636, "lon": 166.2330376636472, "alt_km": 750.0883622496485, "timestamp": "2025-12-27T03:58:44.532981+00:00", "meta": {"OBJECT_NAME": "IRIDIUM 33 DEB", "OBJECT_ID": "1997-051AAJ", "EPOCH": "2025-12-26T05:00:39.510432", "MEAN_MOTION": 14.56743034, "ECCENTRICITY": 0.0060556, "INCLINATION": 85.9634, "RA_OF_ASC_NODE": 168.5079, "ARG_OF_PERICENTER": 141.5358, "MEAN_ANOMALY": 219.019, "EPHEMERIS_TYPE": 0, "CLASSIFICATION_TYPE": "U", "NORAD_CAT_ID": 39777, "ELEMENT_SET_NO": 999, "REV_AT_EPOCH": 60381, "BSTAR": 0.0028913, "MEAN_MOTION_DOT": 0.00013286, "MEAN_MOTION_DDOT": 0}, "tle": {"line1": "1 39777U 97051AAJ 25360.20879063  .00013286  00000+0  28913-2 0  9990", "line2": "2 39777  85.9634 168.5079 0060556 141.5358 219.0190 14.56743034603812"}}, "geometry": {"type": "Point", "coordinates": [166.2330376636472, -24.100924404430636]}}, {"type": "Feature", "properties": {"norad_id": 39778, "name": "IRIDIUM 33 DEB", "group": "iridium-33-debris", "lat": 52.456326788906, "lon": 41.69114206243775, "alt_km": 704.1443277021117, "timestamp": "2025-12-27T03:58:44.532990+00:00", "meta": {"OBJECT_NAME": "IRIDIUM 33 DEB", "OBJECT_ID": "1997-051AAK", "EPOCH": "2025-12-25T20:21:50.179680", "MEAN_MOTION": 14.54348903, "ECCENTRICITY": 0.00065112, "INCLINATION": 86.3769, "RA_OF_ASC_NODE": 37.534, "ARG_OF_PERICENTER": 359.9142, "MEAN_ANOMALY": 0.2063, "EPHEMERIS_TYPE": 0, "CLASSIFICATION_TYPE": "U", "NORAD_CAT_ID": 39778, "ELEMENT_SET_NO": 999, "REV_AT_EPOCH": 60883, "BSTAR": 0.00084026877, "MEAN_MOTION_DOT": 3.588e-05, "MEAN_MOTION_DDOT": 0}, "tle": {"line1": "1 39778U 97051AAK 25359.84849745  .00003588  00000+0  84027-3 0  9996", "line2": "2 39778  86.3769  37.5340 0006511 359.9142   0.2063 14.54348903608830"}}, "geometry": {"type": "Point", "coordinates": [41.69114206243775, 52.456326788906]}}]}